start=new Date('2023-02-22T00:00:00.000Z').valueOf();
sats=[{"CLASSIFICATION_TYPE":"U","SEMIMAJOR_AXIS":"6917.834","OBJECT_NAME":"STARLINK-4060","BSTAR":"0.00002530700000","FILE":"3819803","MEAN_ANOMALY":"262.4098","ECCENTRICITY":"0.00012680","OBJECT_ID":"2022-086AB","DECAY_DATE":null,"PERIAPSIS":"538.822","APOAPSIS":"540.577","REF_FRAME":"TEME","TIME_SYSTEM":"UTC","MEAN_MOTION_DOT":"0.00000115","GP_ID":"226277467","TLE_LINE1":"1 53267U 22086AB  23052.54617594  .00000115  00000-0  25307-4 0  9992","ARG_OF_PERICENTER":"97.7038","MEAN_MOTION":"15.08855015","TLE_LINE2":"2 53267  53.2154 146.7267 0001268  97.7038 262.4098 15.08855015 33172","RCS_SIZE":"LARGE","PERIOD":"95.437","MEAN_MOTION_DDOT":"0.0000000000000","REV_AT_EPOCH":"3317","NORAD_CAT_ID":"53267","OBJECT_TYPE":"PAYLOAD","SITE":"AFETR","CENTER_NAME":"EARTH","ELEMENT_SET_NO":"999","LAUNCH_DATE":"2022-07-24","EPHEMERIS_TYPE":"0","MEAN_ELEMENT_THEORY":"SGP4","COUNTRY_CODE":"US","INCLINATION":"53.2154","EPOCH":"2023-02-21T13:06:29.601216","RA_OF_ASC_NODE":"146.7267"},{"NORAD_CAT_ID":"53268","OBJECT_TYPE":"PAYLOAD","MEAN_MOTION_DDOT":"0.0000000000000","REV_AT_EPOCH":"3317","ELEMENT_SET_NO":"999","LAUNCH_DATE":"2022-07-24","SITE":"AFETR","CENTER_NAME":"EARTH","COUNTRY_CODE":"US","EPHEMERIS_TYPE":"0","MEAN_ELEMENT_THEORY":"SGP4","EPOCH":"2023-02-21T13:11:47.622336","RA_OF_ASC_NODE":"146.7103","INCLINATION":"53.2163","SEMIMAJOR_AXIS":"6917.838","OBJECT_NAME":"STARLINK-4109","BSTAR":"0.00016496000000","FILE":"3819803","MEAN_ANOMALY":"283.7047","CLASSIFICATION_TYPE":"U","ECCENTRICITY":"0.00011580","OBJECT_ID":"2022-086AC","MEAN_MOTION_DOT":"0.00002339","GP_ID":"226276961","TLE_LINE1":"1 53268U 22086AC  23052.54985674  .00002339  00000-0  16496-3 0  9998","DECAY_DATE":null,"PERIAPSIS":"538.902","APOAPSIS":"540.504","REF_FRAME":"TEME","TIME_SYSTEM":"UTC","RCS_SIZE":"LARGE","PERIOD":"95.437","ARG_OF_PERICENTER":"76.4074","MEAN_MOTION":"15.08853804","TLE_LINE2":"2 53268  53.2163 146.7103 0001158  76.4074 283.7047 15.08853804 33178"},{"EPHEMERIS_TYPE":"0","MEAN_ELEMENT_THEORY":"SGP4","COUNTRY_CODE":"US","INCLINATION":"53.2156","EPOCH":"2023-02-21T17:43:22.477440","RA_OF_ASC_NODE":"135.8610","MEAN_MOTION_DDOT":"0.0000000000000","REV_AT_EPOCH":"3333","NORAD_CAT_ID":"53269","OBJECT_TYPE":"PAYLOAD","SITE":"AFETR","CENTER_NAME":"EARTH","ELEMENT_SET_NO":"999","LAUNCH_DATE":"2022-07-24","DECAY_DATE":null,"PERIAPSIS":"538.753","REF_FRAME":"TEME","APOAPSIS":"540.498","TIME_SYSTEM":"UTC","MEAN_MOTION_DOT":"0.00032225","GP_ID":"226334637","TLE_LINE1":"1 53269U 22086AD  23052.73845460  .00032225  00000-0  20314-2 0  9998","ARG_OF_PERICENTER":"103.7705","MEAN_MOTION":"15.08879311","TLE_LINE2":"2 53269  53.2156 135.8610 0001261 103.7705 256.3428 15.08879311 33331","RCS_SIZE":"LARGE","PERIOD":"95.435","CLASSIFICATION_TYPE":"U","SEMIMAJOR_AXIS":"6917.760","OBJECT_NAME":"STARLINK-4057","BSTAR":"0.00203140000000","MEAN_ANOMALY":"256.3428","FILE":"3821329","ECCENTRICITY":"0.00012610","OBJECT_ID":"2022-086AD"},{"LAUNCH_DATE":"2022-07-24","ELEMENT_SET_NO":"999","CENTER_NAME":"EARTH","SITE":"AFETR","OBJECT_TYPE":"PAYLOAD","NORAD_CAT_ID":"53271","REV_AT_EPOCH":"3332","MEAN_MOTION_DDOT":"0.0000000000000","RA_OF_ASC_NODE":"136.1943","EPOCH":"2023-02-21T15:57:23.520384","INCLINATION":"53.2149","COUNTRY_CODE":"US","MEAN_ELEMENT_THEORY":"SGP4","EPHEMERIS_TYPE":"0","OBJECT_ID":"2022-086AF","ECCENTRICITY":"0.00011180","FILE":"3821329","MEAN_ANOMALY":"262.8984","OBJECT_NAME":"STARLINK-4069","BSTAR":"0.00238170000000","SEMIMAJOR_AXIS":"6917.766","CLASSIFICATION_TYPE":"U","PERIOD":"95.435","RCS_SIZE":"LARGE","TLE_LINE2":"2 53271  53.2149 136.1943 0001118  97.2135 262.8984 15.08877515 33326","MEAN_MOTION":"15.08877515","ARG_OF_PERICENTER":"97.2135","TLE_LINE1":"1 53271U 22086AF  23052.66485556  .00037860  00000-0  23817-2 0  9990","GP_ID":"226334889","MEAN_MOTION_DOT":"0.00037860","TIME_SYSTEM":"UTC","PERIAPSIS":"538.857","REF_FRAME":"TEME","APOAPSIS":"540.404","DECAY_DATE":null},{"CLASSIFICATION_TYPE":"U","BSTAR":"0.00132520000000","OBJECT_NAME":"STARLINK-4122","SEMIMAJOR_AXIS":"6917.763","MEAN_ANOMALY":"258.9503","FILE":"3821329","ECCENTRICITY":"0.00008700","OBJECT_ID":"2022-086AG","PERIAPSIS":"539.026","APOAPSIS":"540.230","REF_FRAME":"TEME","DECAY_DATE":null,"TIME_SYSTEM":"UTC","GP_ID":"226333637","MEAN_MOTION_DOT":"0.00020888","TLE_LINE1":"1 53272U 22086AG  23052.74213162  .00020888  00000-0  13252-2 0  9996","MEAN_MOTION":"15.08878303","ARG_OF_PERICENTER":"101.1587","TLE_LINE2":"2 53272  53.2162 135.8435 0000870 101.1587 258.9503 15.08878303 33334","RCS_SIZE":"LARGE","PERIOD":"95.435","MEAN_MOTION_DDOT":"0.0000000000000","REV_AT_EPOCH":"3333","NORAD_CAT_ID":"53272","OBJECT_TYPE":"PAYLOAD","SITE":"AFETR","CENTER_NAME":"EARTH","LAUNCH_DATE":"2022-07-24","ELEMENT_SET_NO":"999","EPHEMERIS_TYPE":"0","MEAN_ELEMENT_THEORY":"SGP4","COUNTRY_CODE":"US","INCLINATION":"53.2162","EPOCH":"2023-02-21T17:48:40.171968","RA_OF_ASC_NODE":"135.8435"},{"COUNTRY_CODE":"US","MEAN_ELEMENT_THEORY":"SGP4","EPHEMERIS_TYPE":"0","RA_OF_ASC_NODE":"135.9339","EPOCH":"2023-02-21T17:22:10.313472","INCLINATION":"53.2139","OBJECT_TYPE":"PAYLOAD","NORAD_CAT_ID":"53273","REV_AT_EPOCH":"3332","MEAN_MOTION_DDOT":"0.0000000000000","ELEMENT_SET_NO":"999","LAUNCH_DATE":"2022-07-24","CENTER_NAME":"EARTH","SITE":"AFETR","TLE_LINE1":"1 53273U 22086AH  23052.72373048  .00059907  00000-0  37432-2 0  9995","MEAN_MOTION_DOT":"0.00059907","GP_ID":"226333887","TIME_SYSTEM":"UTC","DECAY_DATE":null,"APOAPSIS":"540.347","PERIAPSIS":"538.713","REF_FRAME":"TEME","PERIOD":"95.433","RCS_SIZE":"LARGE","TLE_LINE2":"2 53273  53.2139 135.9339 0001181  91.4666 268.6461 15.08910422 33327","ARG_OF_PERICENTER":"91.4666","MEAN_MOTION":"15.08910422","MEAN_ANOMALY":"268.6461","FILE":"3821329","SEMIMAJOR_AXIS":"6917.665","BSTAR":"0.00374320000000","OBJECT_NAME":"STARLINK-4051","CLASSIFICATION_TYPE":"U","OBJECT_ID":"2022-086AH","ECCENTRICITY":"0.00011810"},{"FILE":"3821329","MEAN_ANOMALY":"276.8409","BSTAR":"0.00216270000000","OBJECT_NAME":"STARLINK-4050","SEMIMAJOR_AXIS":"6917.778","CLASSIFICATION_TYPE":"U","OBJECT_ID":"2022-086AJ","ECCENTRICITY":"0.00010280","TLE_LINE1":"1 53274U 22086AJ  23052.66853536  .00034331  00000-0  21627-2 0  9997","GP_ID":"226334639","MEAN_MOTION_DOT":"0.00034331","TIME_SYSTEM":"UTC","PERIAPSIS":"538.932","APOAPSIS":"540.355","REF_FRAME":"TEME","DECAY_DATE":null,"PERIOD":"95.435","RCS_SIZE":"LARGE","TLE_LINE2":"2 53274  53.2163 136.1753 0001028  83.2700 276.8409 15.08873373 33322","MEAN_MOTION":"15.08873373","ARG_OF_PERICENTER":"83.2700","OBJECT_TYPE":"PAYLOAD","NORAD_CAT_ID":"53274","REV_AT_EPOCH":"3332","MEAN_MOTION_DDOT":"0.0000000000000","LAUNCH_DATE":"2022-07-24","ELEMENT_SET_NO":"999","CENTER_NAME":"EARTH","SITE":"AFETR","COUNTRY_CODE":"US","MEAN_ELEMENT_THEORY":"SGP4","EPHEMERIS_TYPE":"0","RA_OF_ASC_NODE":"136.1753","EPOCH":"2023-02-21T16:02:41.455104","INCLINATION":"53.2163"},{"CENTER_NAME":"EARTH","SITE":"AFETR","LAUNCH_DATE":"2022-07-24","ELEMENT_SET_NO":"999","REV_AT_EPOCH":"3332","MEAN_MOTION_DDOT":"0.0000000000000","OBJECT_TYPE":"PAYLOAD","NORAD_CAT_ID":"53275","INCLINATION":"53.2130","RA_OF_ASC_NODE":"135.9514","EPOCH":"2023-02-21T17:16:52.846176","MEAN_ELEMENT_THEORY":"SGP4","EPHEMERIS_TYPE":"0","COUNTRY_CODE":"US","OBJECT_ID":"2022-086AK","ECCENTRICITY":"0.00012650","CLASSIFICATION_TYPE":"U","FILE":"3821329","MEAN_ANOMALY":"269.3267","BSTAR":"0.00245580000000","OBJECT_NAME":"STARLINK-4179","SEMIMAJOR_AXIS":"6917.758","TLE_LINE2":"2 53275  53.2130 135.9514 0001265  90.7870 269.3267 15.08880062 33325","MEAN_MOTION":"15.08880062","ARG_OF_PERICENTER":"90.7870","PERIOD":"95.435","RCS_SIZE":"LARGE","TIME_SYSTEM":"UTC","REF_FRAME":"TEME","PERIAPSIS":"538.748","APOAPSIS":"540.498","DECAY_DATE":null,"TLE_LINE1":"1 53275U 22086AK  23052.72005609  .00039056  00000-0  24558-2 0  9990","GP_ID":"226335389","MEAN_MOTION_DOT":"0.00039056"},{"TLE_LINE1":"1 53276U 22086AL  23052.66119626  .00000388  00000-0  42463-4 0  9992","GP_ID":"226334137","MEAN_MOTION_DOT":"0.00000388","TIME_SYSTEM":"UTC","PERIAPSIS":"538.656","REF_FRAME":"TEME","APOAPSIS":"540.843","DECAY_DATE":null,"PERIOD":"95.438","RCS_SIZE":"LARGE","TLE_LINE2":"2 53276  53.2147 136.2119 0001581  71.9532 288.1632 15.08838626 33319","MEAN_MOTION":"15.08838626","ARG_OF_PERICENTER":"71.9532","MEAN_ANOMALY":"288.1632","FILE":"3821329","BSTAR":"0.00004246300000","OBJECT_NAME":"STARLINK-4174","SEMIMAJOR_AXIS":"6917.885","CLASSIFICATION_TYPE":"U","OBJECT_ID":"2022-086AL","ECCENTRICITY":"0.00015810","COUNTRY_CODE":"US","MEAN_ELEMENT_THEORY":"SGP4","EPHEMERIS_TYPE":"0","RA_OF_ASC_NODE":"136.2119","EPOCH":"2023-02-21T15:52:07.356864","INCLINATION":"53.2147","OBJECT_TYPE":"PAYLOAD","NORAD_CAT_ID":"53276","REV_AT_EPOCH":"3331","MEAN_MOTION_DDOT":"0.0000000000000","LAUNCH_DATE":"2022-07-24","ELEMENT_SET_NO":"999","CENTER_NAME":"EARTH","SITE":"AFETR"},{"CLASSIFICATION_TYPE":"U","MEAN_ANOMALY":"267.5348","FILE":"3821329","SEMIMAJOR_AXIS":"6917.812","OBJECT_NAME":"STARLINK-4178","BSTAR":"0.00002010600000","OBJECT_ID":"2022-086AM","ECCENTRICITY":"0.00014450","TIME_SYSTEM":"UTC","DECAY_DATE":null,"REF_FRAME":"TEME","PERIAPSIS":"538.677","APOAPSIS":"540.676","TLE_LINE1":"1 53277U 22086AM  23052.71268705  .00000032  00000-0  20106-4 0  9998","MEAN_MOTION_DOT":"0.00000032","GP_ID":"226334387","TLE_LINE2":"2 53277  53.2179 136.0078 0001445  92.5809 267.5348 15.08862538 33327","ARG_OF_PERICENTER":"92.5809","MEAN_MOTION":"15.08862538","PERIOD":"95.436","RCS_SIZE":"LARGE","REV_AT_EPOCH":"3332","MEAN_MOTION_DDOT":"0.0000000000000","OBJECT_TYPE":"PAYLOAD","NORAD_CAT_ID":"53277","CENTER_NAME":"EARTH","SITE":"AFETR","ELEMENT_SET_NO":"999","LAUNCH_DATE":"2022-07-24","MEAN_ELEMENT_THEORY":"SGP4","EPHEMERIS_TYPE":"0","COUNTRY_CODE":"US","INCLINATION":"53.2179","RA_OF_ASC_NODE":"136.0078","EPOCH":"2023-02-21T17:06:16.161120"}];
